{
  "norad_id": 65891,
  "name": "STARLINK-34791",
  "history": [
    {
      "epoch": "2026-03-28T22:03:15.901920Z",
      "apogee_km": 475.8680982106516,
      "perigee_km": 474.48647005097064,
      "latitude_deg": -8.558650600173863e-06,
      "longitude_deg": 125.21605695957038,
      "height_km": 475.9805756386314,
      "semi_major_axis_km": 6853.314284130811,
      "eccentricity": 0.0001008,
      "inclination_deg": 53.1598,
      "raan_deg": 282.3648,
      "arg_perigee_deg": 82.0842,
      "mean_anomaly_deg": 278.0273,
      "mean_motion_rev_day": 15.30212655
    }
  ]
}