{"fetched_at":"2026-03-29T16:36:15Z","count":15609,"tles":[{"name":"STARLINK-34791","line1":"1 65891U 25224K   26087.91893405  .00030506  00000+0  10375-2 0  9997","line2":"2 65891  53.1598 282.3648 0001008  82.0842 278.0273 15.30212655 27815","category":"Starlink"}]}